ONEWEB-0205             
1 48226U 21031S   25221.58766410  .00000296  00000+0  76364-3 0  9993
2 48226  87.9074 351.7038 0001644 102.4111 257.7203 13.14502978207332
ONEWEB-0206             
1 48227U 21031T   25221.33233712 -.00000214  00000+0 -61074-3 0  9995
2 48227  87.9075 351.7346 0001783 100.6529 259.4802 13.14502531207253
ONEWEB-0182             
1 48228U 21031U   25221.09924932 -.00000080  00000+0 -25009-3 0  9999
2 48228  87.9074 351.8254 0001916 104.7056 255.4286 13.14503717207439
ONEWEB-0186             
1 48229U 21031V   25221.33869868  .00000165  00000+0  41156-3 0  9996
2 48229  87.9077 351.7391 0001745  99.0121 261.1207 13.14502843207417
ONEWEB-0181             
1 48230U 21031W   25221.62095173 -.00000138  00000+0 -40763-3 0  9995
2 48230  87.9082 351.7554 0001666  94.9302 265.2018 13.14500968207302
ONEWEB-0188             
1 48231U 21031X   25221.12618888  .00000211  00000+0  53583-3 0  9999
2 48231  87.9081 351.8445 0001790  99.5268 260.6064 13.14504498207146
ONEWEB-0220             
1 48232U 21031Y   25221.62255211 -.00000219  00000+0 -62454-3 0  9999
2 48232  87.9074 351.6859 0001641 104.7744 255.3568 13.14503464207477
ONEWEB-0165             
1 48233U 21031Z   25221.34662351  .00000230  00000+0  58635-3 0  9993
2 48233  87.9070 351.7845 0001591 101.4489 258.6819 13.14502798207399
